470P/PANSTARRS,e,8.8446,246.1761,151.8445,4.471265,0.1042458,0.38998419,26.1218,08/24.0/2024,2000,g 15.5,4.0
# From MPEC 2024-GJ3
471P/,e,4.7941,283.3063,94.9268,5.707791,0.0722773,0.62816931,17.9144,08/24.0/2024,2000,g 12.0,4.0
# From MPEC 2024-Q20
472P/NEAT-LINEAR,e,10.8332,205.9827,218.9366,7.827431,0.0450065,0.56697110,1.7821,08/24.0/2024,2000,g 10.5,4.0
# From MPEC 2024-MB8
473P/NEAT,e,56.9077,22.1849,42.9204,7.968905,0.0438133,0.82358283,7.8758,08/24.0/2024,2000,g 13.5,4.0
# From MPEC 2024-B74
474P/Hogan,e,1.0970,26.7466,11.2656,3.130403,0.1779524,0.18827896,72.1003,08/24.0/2024,2000,g 15.5,4.0
# From MPEC 2024-O39
475P/Spacewatch-LINEAR,e,14.5247,147.3732,40.3914,7.311212,0.0498563,0.44229866,4.1591,08/24.0/2024,2000,g 11.0,4.0
# From MPEC 2024-Q20
476P/PANSTARRS,e,19.0057,57.0607,46.7358,4.782294,0.0942431,0.34691255,354.9544,08/24.0/2024,2000,g 12.5,4.0
# From MPEC 2024-GJ3
477P/PANSTARRS,e,8.9146,59.1578,305.9651,3.004290,0.1892741,0.41746081,45.6761,08/24.0/2024,2000,g 14.5,4.0
# From MPEC 2024-L77
478P/ATLAS,e,12.5249,127.2707,13.1912,3.646217,0.1415599,0.34352971,16.1370,08/24.0/2024,2000,g 13.5,4.0
# From MPEC 2024-PC5
479P/Elenin,e,15.3981,295.8316,263.5256,5.624169,0.0738953,0.77886540,8.1844,08/24.0/2024,2000,g 15.0,4.0
# From MPEC 2024-GJ3
480P/PANSTARRS,e,13.7175,229.9771,214.3018,4.608552,0.0996225,0.24639064,48.6959,08/24.0/2024,2000,g 12.0,4.0
# From MPEC 2024-L77
481P/Lemmon-PANSTARRS,e,6.0827,93.5531,356.7151,4.679136,0.0973768,0.34345031,40.1214,08/24.0/2024,2000,g 13.5,4.0
# From MPEC 2024-JU4
482P/PANSTARRS,e,24.4845,126.0927,339.6773,3.755609,0.1354202,0.49233059,60.7974,08/24.0/2024,2000,g 13.5,4.0
# From MPEC 2024-L77
483P-A/PANSTARRS,e,14.2742,199.7255,48.2910,3.188072,0.1731458,0.22507982,158.0283,08/24.0/2024,2000,g 13.5,4.0
# From MPEC 2024-L77
483P-B/PANSTARRS,e,14.2742,199.7233,48.3426,3.188023,0.1731498,0.22510528,158.0264,08/24.0/2024,2000,g 17.0,4.0
# From MPEC 2024-DD5
484P/Spacewatch,e,14.4754,265.3966,240.7664,3.758087,0.1352863,0.43253713,184.8023,08/24.0/2024,2000,g 16.0,4.0
# From MPEC 2024-JU4
485P/Sheppard-Tholen,e,10.0162,261.6466,196.0275,6.847340,0.0550074,0.41709694,20.0885,08/24.0/2024,2000,g 13.0,4.0
# From MPEC 2024-KE5
486P/Leonard,e,2.2095,219.0279,93.9480,3.628995,0.1425688,0.36377287,328.2289,08/24.0/2024,2000,g 14.5,4.0
# From MPC107687
1I/`Oumuamua,h,09/09.4886/2017,122.6778,24.5997,241.6845,1.199252,0.255240,2000,23.0,2.0
# From MPEC 2023-L37
2I/Borisov,h,12/08.5548/2019,44.0527,308.1480,209.1251,3.356633,2.006548,2000,11.0,4.0
